     3.02           N: GNSS NAV DATA    G: GPS              RINEX VERSION / TYPE
Spider v7.5.1.8670  SMO                 20240925 080444 UTC PGM / RUN BY / DATE
GPSA   2.5146D-08  2.2352D-08 -1.1921D-07 -1.1921D-07       IONOSPHERIC CORR
GPSB   1.3312D+05  0.0000D+00 -2.6214D+05  2.6214D+05       IONOSPHERIC CORR
GPUT -9.3132257462D-10-1.776356839D-15 503808 2333          TIME SYSTEM CORR
    18    18  2185     7                                    LEAP SECONDS
                                                            END OF HEADER
G31 2024 09 25 08 00 00-2.242573536932D-04 4.547473508865D-13 0.000000000000D+00
     7.200000000000D+01 2.000000000000D+00 4.718768042977D-09-2.232435371608D-01
     3.371387720108D-07 1.066911255475D-02 7.685273885727D-06 5.153779228210D+03
     2.880000000000D+05 5.029141902924D-08 3.055162258263D+00 1.471489667892D-07
     9.546797772161D-01 2.285000000000D+02 7.329419733580D-01-8.162483133844D-09
     2.146517963375D-10 1.000000000000D+00 2.333000000000D+03 0.000000000000D+00
     2.000000000000D+00 0.000000000000D+00-1.303851604462D-08 7.200000000000D+01
     2.807400000000D+05                   
G32 2024 09 25 08 00 00-5.937339738011D-04 3.865352482535D-12 0.000000000000D+00
     2.300000000000D+01-5.887500000000D+01 4.254820051841D-09-1.946529773441D+00
    -3.052875399590D-06 7.861930644140D-03 8.746981620789D-06 5.153728862762D+03
     2.880000000000D+05 1.322478055954D-07 1.975746715427D+00-2.030283212662D-07
     9.626578770332D-01 2.144687500000D+02-2.135440188604D+00-7.667819268420D-09
     1.342913141800D-10 1.000000000000D+00 2.333000000000D+03 0.000000000000D+00
     2.000000000000D+00 0.000000000000D+00 9.313225746155D-10 2.300000000000D+01
     2.807400000000D+05                   
G29 2024 09 25 08 00 00-5.756043829024D-04 2.501110429876D-12 0.000000000000D+00
     2.700000000000D+01 6.653125000000D+01 4.342680881564D-09-2.734710526985D+00
     3.630295395851D-06 2.920254599303D-03 7.344409823418D-06 5.153771120071D+03
     2.880000000000D+05-3.352761268616D-08-1.080058764509D+00 1.676380634308D-08
     9.693755836869D-01 2.455000000000D+02 2.676519961400D+00-7.877828167580D-09
    -5.785955395354D-11 1.000000000000D+00 2.333000000000D+03 0.000000000000D+00
     2.000000000000D+00 0.000000000000D+00-9.778887033463D-09 2.700000000000D+01
     2.807400000000D+05                   
G16 2024 09 25 08 00 00-1.718141138554D-04 1.011812855722D-11 0.000000000000D+00
     3.300000000000D+01 3.959375000000D+01 4.512688001057D-09-1.681832686762D+00
     1.933425664902D-06 1.397490419913D-02 7.160007953644D-06 5.153621034622D+03
     2.880000000000D+05 2.626329660416D-07-2.116606497865D+00-9.872019290924D-08
     9.609782451955D-01 2.332187500000D+02 8.455686481625D-01-7.769608956210D-09
    -5.464513216924D-11 1.000000000000D+00 2.333000000000D+03 0.000000000000D+00
     2.000000000000D+00 0.000000000000D+00-1.024454832077D-08 3.300000000000D+01
     2.807400000000D+05                   
